NORAD_CAT_ID,OBJECT_NAME,OBJECT_TYPE,EPOCH,MEAN_MOTION,ECCENTRICITY,INCLINATION,RA_OF_ASC_NODE,ARG_OF_PERICENTER,MEAN_ANOMALY,BSTAR,MEAN_MOTION_DOT,MEAN_MOTION_DDOT,TLE_LINE0,TLE_LINE1,TLE_LINE2,SEMIMAJOR_AXIS,PERIOD,APOGEE,PERIGEE,DECAYED
53575.0,STARLINK-4551,PAYLOAD,2024-01-10 08:14:14,15.08845161,0.0001557,53.2193,357.4229,93.454,266.6631,6.3795e-05,7.28e-06,0.0,0 STARLINK-4551,1 53575U 22101BA  24010.34322390  .00000728  00000-0  63795-4 0  9995,2 53575  53.2193 357.4229 0001557  93.4540 266.6631 15.08845161 77974,6917.865,95.437,540.807,538.653,0.0
53575.0,STARLINK-4551,PAYLOAD,2024-01-11 03:18:52,15.08842338,0.0001635,53.2189,353.8551,96.2415,263.8764,6.5359e-06,-1.84e-06,0.0,0 STARLINK-4551,1 53575U 22101BA  24011.13810948 -.00000184  00000-0  65359-5 0  9990,2 53575  53.2189 353.8551 0001635  96.2415 263.8764 15.08842338 77403,6917.873,95.437,540.869,538.607,0.0
53575.0,STARLINK-4551,PAYLOAD,2024-01-11 06:29:38,15.08845592,0.000166,53.219,353.2668,93.7823,266.3359,4.5786e-05,4.41e-06,0.0,0 STARLINK-4551,1 53575U 22101BA  24011.27058665  .00000441  00000-0  45786-4 0  9991,2 53575  53.2190 353.2668 0001660  93.7823 266.3359 15.08845592 78113,6917.863,95.437,540.877,538.58,0.0
53575.0,STARLINK-4551,PAYLOAD,2024-01-12 04:45:02,15.08848846,0.000146,53.2176,349.0993,108.1853,251.9298,5.4044e-05,5.72e-06,0.0,0 STARLINK-4551,1 53575U 22101BA  24012.19794239  .00000572  00000-0  54044-4 0  9999,2 53575  53.2176 349.0993 0001460 108.1853 251.9298 15.08848846 77568,6917.853,95.437,540.728,538.708,0.0
53575.0,STARLINK-4551,PAYLOAD,2024-01-13 03:00:27,15.08839263,0.0001418,53.2178,344.9361,84.9777,275.1377,-6.2945e-05,-1.29e-05,0.0,0 STARLINK-4551,1 53575U 22101BA  24013.12531514 -.00001290  00000-0 -62945-4 0  9997,2 53575  53.2178 344.9361 0001418  84.9777 275.1377 15.08839263 77707,6917.883,95.438,540.729,538.767,0.0
53575.0,STARLINK-4551,PAYLOAD,2024-01-13 07:46:36,15.08842634,0.0001609,53.219,344.0414,105.5653,254.5516,-4.2216e-05,-9.6e-06,0.0,0 STARLINK-4551,1 53575U 22101BA  24013.32403036 -.00000960  00000-0 -42216-4 0  9998,2 53575  53.2190 344.0414 0001609 105.5653 254.5516 15.08842634 78428,6917.872,95.437,540.85,538.624,0.0
53575.0,STARLINK-4551,PAYLOAD,2024-01-14 02:51:14,15.08838025,0.00015,53.2178,340.4726,92.2091,267.9073,1.8975e-07,-2.85e-06,0.0,0 STARLINK-4551,1 53575U 22101BA  24014.11891531 -.00000285  00000-0  18975-6 0  9993,2 53575  53.2178 340.4726 0001500  92.2091 267.9073 15.08838025 78546,6917.886,95.438,540.789,538.714,0.0
53575.0,STARLINK-4551,PAYLOAD,2024-01-14 21:55:52,15.08834458,0.000163,53.2187,336.9049,103.8775,256.2399,4.1186e-05,3.67e-06,0.0,0 STARLINK-4551,1 53575U 22101BA  24014.91379952  .00000367  00000-0  41186-4 0  9997,2 53575  53.2187 336.9049 0001630 103.8775 256.2399 15.08834458 78667,6917.897,95.438,540.89,538.635,0.0
53575.0,STARLINK-4551,PAYLOAD,2024-01-15 02:42:00,15.08853957,0.0001598,53.2182,336.0125,114.1748,245.9411,0.00020124,2.917e-05,0.0,0 STARLINK-4551,1 53575U 22101BA  24015.11250280  .00002917  00000-0  20124-3 0  9993,2 53575  53.2182 336.0125 0001598 114.1748 245.9411 15.08853957 78009,6917.838,95.437,540.808,538.597,0.0
53575.0,STARLINK-4551,PAYLOAD,2024-01-15 04:17:23,15.08855968,0.0001615,53.2185,335.7153,114.5582,245.5579,0.00021473,3.133e-05,0.0,0 STARLINK-4551,1 53575U 22101BA  24015.17874077  .00003133  00000-0  21473-3 0  9994,2 53575  53.2185 335.7153 0001615 114.5582 245.5579 15.08855968 78701,6917.832,95.437,540.814,538.579,0.0
53575.0,STARLINK-4551,PAYLOAD,2024-01-16 00:57:25,15.08834421,0.0001402,53.2188,331.8552,84.5216,275.5937,4.7601e-05,4.7e-06,0.0,0 STARLINK-4551,1 53575U 22101BA  24016.03988152  .00000470  00000-0  47601-4 0  9993,2 53575  53.2188 331.8552 0001402  84.5216 275.5937 15.08834421 78148,6917.897,95.438,540.732,538.793,0.0
53575.0,STARLINK-4551,PAYLOAD,2024-01-16 02:32:48,15.08834531,0.0001278,53.2182,331.5602,71.4436,288.6695,5.451e-05,5.8e-06,0.0,0 STARLINK-4551,1 53575U 22101BA  24016.10612225  .00000580  00000-0  54510-4 0  9995,2 53575  53.2182 331.5602 0001278  71.4436 288.6695 15.08834531 78840,6917.897,95.438,540.646,538.878,0.0
53575.0,STARLINK-4551,PAYLOAD,2024-01-16 20:02:03,15.08840824,0.0001275,53.218,328.2867,104.7317,255.3816,-8.8531e-05,-1.697e-05,0.0,0 STARLINK-4551,1 53575U 22101BA  24016.83476516 -.00001697  00000-0 -88531-4 0  9998,2 53575  53.2180 328.2867 0001275 104.7317 255.3816 15.08840824 78959,6917.878,95.438,540.625,538.861,0.0
53575.0,STARLINK-4551,PAYLOAD,2024-01-17 03:58:58,15.08854238,0.0001242,53.2175,326.8001,84.924,275.1894,3.1601e-05,2.15e-06,0.0,0 STARLINK-4551,1 53575U 22101BA  24017.16595238  .00000215  00000-0  31601-4 0  9997,2 53575  53.2175 326.8001 0001242  84.9240 275.1894 15.08854238 78315,6917.837,95.437,540.561,538.843,0.0
53575.0,STARLINK-4551,PAYLOAD,2024-01-18 03:49:46,15.08825283,0.0001451,53.2177,322.3401,75.9336,284.1817,1.6741e-05,-2.2e-07,0.0,0 STARLINK-4551,1 53575U 22101BA  24018.15956534 -.00000022  00000-0  16741-4 0  9992,2 53575  53.2177 322.3401 0001451  75.9336 284.1817 15.08825283 78469,6917.925,95.438,540.794,538.787,0.0
53575.0,STARLINK-4551,PAYLOAD,2024-01-18 05:25:09,15.08827469,0.0001461,53.2181,322.0416,84.9127,275.2032,4.6392e-05,4.5e-06,0.0,0 STARLINK-4551,1 53575U 22101BA  24018.22580383  .00000450  00000-0  46392-4 0  9994,2 53575  53.2181 322.0416 0001461  84.9127 275.2032 15.08827469 79162,6917.919,95.438,540.794,538.773,0.0
53575.0,STARLINK-4551,PAYLOAD,2024-01-18 21:19:00,15.08834521,0.0001524,53.2192,319.0645,111.0584,249.0571,-9.8207e-05,-1.85e-05,0.0,0 STARLINK-4551,1 53575U 22101BA  24018.88820591 -.00001850  00000-0 -98207-4 0  9993,2 53575  53.2192 319.0645 0001524 111.0584 249.0571 15.08834521 79268,6917.897,95.438,540.816,538.708,0.0
53575.0,STARLINK-4551,PAYLOAD,2024-01-19 02:05:09,15.0883681,0.0001784,53.2184,318.1762,149.2004,210.9093,-4.1982e-05,-9.56e-06,0.0,0 STARLINK-4551,1 53575U 22101BA  24019.08692084 -.00000956  00000-0 -41982-4 0  9994,2 53575  53.2184 318.1762 0001784 149.2004 210.9093 15.08836810 78603,6917.89,95.438,540.989,538.521,0.0
53575.0,STARLINK-4551,PAYLOAD,2024-01-19 05:15:55,15.08850644,0.0001726,53.2181,317.5763,130.7853,229.3289,5.245e-05,5.47e-06,0.0,0 STARLINK-4551,1 53575U 22101BA  24019.21938976  .00000547  00000-0  52450-4 0  9998,2 53575  53.2181 317.5763 0001726 130.7853 229.3289 15.08850644 78621,6917.848,95.437,540.907,538.519,0.0
53575.0,STARLINK-4551,PAYLOAD,2024-01-19 19:34:24,15.08828227,0.000171,53.2196,314.8997,118.6547,241.4617,0.00015287,2.145e-05,0.0,0 STARLINK-4551,1 53575U 22101BA  24019.81555984  .00002145  00000-0  15287-3 0  9990,2 53575  53.2196 314.8997 0001710 118.6547 241.4617 15.08828227 78716,6917.916,95.438,540.964,538.598,0.0
53575.0,STARLINK-4551,PAYLOAD,2024-01-20 01:55:56,15.08834625,0.0001478,53.2172,313.7167,96.7731,263.3429,0.00019677,2.845e-05,0.0,0 STARLINK-4551,1 53575U 22101BA  24020.08051730  .00002845  00000-0  19677-3 0  9995,2 53575  53.2172 313.7167 0001478  96.7731 263.3429 15.08834625 79443,6917.897,95.438,540.784,538.739,0.0
53575.0,STARLINK-4551,PAYLOAD,2024-01-20 22:35:57,15.08832443,0.0001418,53.2168,309.8518,114.8379,245.2761,0.00017561,2.507e-05,0.0,0 STARLINK-4551,1 53575U 22101BA  24020.94164240  .00002507  00000-0  17561-3 0  9996,2 53575  53.2168 309.8518 0001418 114.8379 245.2761 15.08832443 79576,6917.903,95.438,540.749,538.788,0.0
53575.0,STARLINK-4551,PAYLOAD,2024-01-21 01:46:43,15.0884224,0.000148,53.2179,309.2566,91.9131,268.2031,6.969e-05,8.21e-06,0.0,0 STARLINK-4551,1 53575U 22101BA  24021.07412013  .00000821  00000-0  69690-4 0  9993,2 53575  53.2179 309.2566 0001480  91.9131 268.2031 15.08842240 78902,6917.874,95.437,540.762,538.715,0.0
53575.0,STARLINK-4551,PAYLOAD,2024-01-21 04:57:29,15.0884484,0.0001428,53.2169,308.6592,123.038,237.0749,0.00012906,1.767e-05,0.0,0 STARLINK-4551,1 53575U 22101BA  24021.20659541  .00001767  00000-0  12906-3 0  9994,2 53575  53.2169 308.6592 0001428 123.0380 237.0749 15.08844840 79615,6917.866,95.437,540.718,538.743,0.0
53575.0,STARLINK-4551,PAYLOAD,2024-01-21 22:26:44,15.08840981,0.0001348,53.2171,305.3854,120.7239,239.3886,-4.9198e-05,-1.071e-05,0.0,0 STARLINK-4551,1 53575U 22101BA  24021.93524304 -.00001071  00000-0 -49198-4 0  9996,2 53575  53.2171 305.3854 0001348 120.7239 239.3886 15.08840981 79722,6917.877,95.437,540.675,538.81,0.0
53575.0,STARLINK-4551,PAYLOAD,2024-01-22 04:48:17,15.08844622,0.0001324,53.217,304.1953,121.3754,238.7368,-2.8146e-05,-7.36e-06,0.0,0 STARLINK-4551,1 53575U 22101BA  24022.20019996 -.00000736  00000-0 -28146-4 0  9990,2 53575  53.2170 304.1953 0001324 121.3754 238.7368 15.08844622 79073,6917.866,95.437,540.647,538.815,0.0
53575.0,STARLINK-4551,PAYLOAD,2024-01-22 22:17:32,15.08836647,0.0001458,53.2179,300.9233,114.2705,245.8439,-5.7155e-06,-3.79e-06,0.0,0 STARLINK-4551,1 53575U 22101BA  24022.92884699 -.00000379  00000-0 -57155-5 0  9995,2 53575  53.2179 300.9233 0001458 114.2705 245.8439 15.08836647 79876,6917.891,95.438,540.764,538.747,0.0
53575.0,STARLINK-4551,PAYLOAD,2024-01-22 23:52:55,15.08837068,0.0001219,53.2178,300.626,109.6638,250.4486,1.3195e-05,-7.8e-07,0.0,0 STARLINK-4551,1 53575U 22101BA  24022.99508625 -.00000078  00000-0  13195-4 0  9994,2 53575  53.2178 300.6260 0001219 109.6638 250.4486 15.08837068 79197,6917.889,95.438,540.598,538.911,0.0
53575.0,STARLINK-4551,PAYLOAD,2024-01-23 22:08:19,15.08839819,0.0001517,53.2171,296.4619,88.9621,271.1545,0.00012611,1.72e-05,0.0,0 STARLINK-4551,1 53575U 22101BA  24023.92244347  .00001720  00000-0  12611-3 0  9991,2 53575  53.2171 296.4619 0001517  88.9621 271.1545 15.08839819 80028,6917.881,95.438,540.795,538.696,0.0
53575.0,STARLINK-4551,PAYLOAD,2024-01-23 23:43:42,15.0884161,0.0001553,53.2171,296.1647,92.4394,267.6776,0.00014249,1.981e-05,0.0,0 STARLINK-4551,1 53575U 22101BA  24023.98868188  .00001981  00000-0  14249-3 0  9990,2 53575  53.2171 296.1647 0001553  92.4394 267.6776 15.08841610 79344,6917.875,95.437,540.815,538.666,0.0
